[{"OBJECT_NAME":"LYNK TOWER 5","OBJECT_ID":"2024-043Z","EPOCH":"2026-03-09T22:11:51.175104","MEAN_MOTION":15.29454506,"ECCENTRICITY":0.00104056,"INCLINATION":97.5458,"RA_OF_ASC_NODE":204.7305,"ARG_OF_PERICENTER":234.6422,"MEAN_ANOMALY":125.3846,"EPHEMERIS_TYPE":0,"CLASSIFICATION_TYPE":"U","NORAD_CAT_ID":59121,"ELEMENT_SET_NO":999,"REV_AT_EPOCH":11186,"BSTAR":0.00031901545,"MEAN_MOTION_DOT":9.048e-5,"MEAN_MOTION_DDOT":0},{"OBJECT_NAME":"STARLINK-33866","OBJECT_ID":"2025-083V","EPOCH":"2026-03-09T05:26:43.893888","MEAN_MOTION":15.27603221,"ECCENTRICITY":0.0001501,"INCLINATION":43.0049,"RA_OF_ASC_NODE":8.0306,"ARG_OF_PERICENTER":262.1972,"MEAN_ANOMALY":97.871,"EPHEMERIS_TYPE":0,"CLASSIFICATION_TYPE":"U","NORAD_CAT_ID":63653,"ELEMENT_SET_NO":999,"REV_AT_EPOCH":5002,"BSTAR":0.0013116397,"MEAN_MOTION_DOT":0.00036033,"MEAN_MOTION_DDOT":0}]
